SL-3 R/B                
1 13403U 82079B   26046.22102378  .00007615  00000+0  30663-3 0  9999
2 13403  81.1441 219.6007 0024207 241.5630 118.3164 15.24453971374271
SL-14 R/B               
1 13553U 82092B   26046.29180713  .00000643  00000+0  69413-4 0  9996
2 13553  82.5709 162.3424 0020770  19.7965  10.0982 14.86642255325604
SL-3 R/B                
1 13819U 83010B   26046.04162726  .00012824  00000+0  26488-3 0  9997
2 13819  81.1024  29.9951 0018385 122.3597 237.9430 15.45515453354445
SL-3 R/B                
1 14208U 83075B   26046.24249521  .00013793  00000+0  37054-3 0  9999
2 14208  97.6127  49.9827 0020295 314.2291  45.7286 15.37835058326703
COSMOS 1536             
1 14699U 84013A   26046.25963547  .00006544  00000+0  27206-3 0  9992
2 14699  82.5468 130.1380 0014273   7.6957 352.4496 15.23518302269203
SL-14 R/B               
1 14820U 84027B   26046.06759753  .00000403  00000+0  43216-4 0  9992
2 14820  82.5390 266.2351 0019197  51.5006 308.7928 14.85953097244270
SL-8 R/B                
1 15483U 85006B   26046.20486028  .00000193  00000+0  72737-4 0  9990
2 15483  74.0462 302.5235 0019265 224.8837 305.8950 14.37771867150796
SL-12 R/B(2)            
1 15772U 85042D   26046.24603716  .00000036  00000+0  37806-4 0  9994
2 15772  71.1085 135.1466 0034502 164.2764 216.9471 14.21976227111202
SL-14 R/B               
1 15945U 85069B   26046.05922173  .00000513  00000+0  55258-4 0  9996
2 15945  82.5243  46.2161 0017126 267.5638  92.3618 14.86405366169473
SL-16 R/B               
1 16182U 85097B   26045.83514778 -.00000212  00000+0 -82310-4 0  9991
2 16182  71.0024 188.6649 0009714 286.3786 183.3702 14.16594824 83994
SL-14 R/B               
1 16496U 86006B   26046.10952864  .00000622  00000+0  63509-4 0  9995
2 16496  82.5256 280.9920 0076396 348.7636  11.1870 14.86784284145857
COSMOS 1743             
1 16719U 86034A   26046.15789019  .00028828  00000+0  39987-3 0  9999
2 16719  82.5316  97.4483 0004568  33.0531 327.1009 15.56883262176747
