CCSDS_OMM_VERS = 2.0
CREATION_DATE  = 
ORIGINATOR     = 

OBJECT_NAME    = SL-3 R/B
OBJECT_ID      = 1982-079B
CENTER_NAME    = EARTH
REF_FRAME      = TEME
TIME_SYSTEM    = UTC
MEAN_ELEMENT_THEORY = SGP/SGP4

EPOCH          = 2026-02-15T05:18:16.454592
MEAN_MOTION    = 15.24453971
ECCENTRICITY   = .00242079
INCLINATION    = 81.1441
RA_OF_ASC_NODE = 219.6007
ARG_OF_PERICENTER = 241.5630
MEAN_ANOMALY   = 118.3164

EPHEMERIS_TYPE = 0
CLASSIFICATION_TYPE = U
NORAD_CAT_ID   = 13403
ELEMENT_SET_NO = 999
REV_AT_EPOCH   = 37427
BSTAR          = .30662561E-3
MEAN_MOTION_DOT = .7615E-4
MEAN_MOTION_DDOT = 0

CCSDS_OMM_VERS = 2.0
CREATION_DATE  = 
ORIGINATOR     = 

OBJECT_NAME    = SL-14 R/B
OBJECT_ID      = 1982-092B
CENTER_NAME    = EARTH
REF_FRAME      = TEME
TIME_SYSTEM    = UTC
MEAN_ELEMENT_THEORY = SGP/SGP4

EPOCH          = 2026-02-15T07:00:12.136032
MEAN_MOTION    = 14.86642255
ECCENTRICITY   = .00207703
INCLINATION    = 82.5709
RA_OF_ASC_NODE = 162.3424
ARG_OF_PERICENTER = 19.7965
MEAN_ANOMALY   = 10.0982

EPHEMERIS_TYPE = 0
CLASSIFICATION_TYPE = U
NORAD_CAT_ID   = 13553
ELEMENT_SET_NO = 999
REV_AT_EPOCH   = 32560
BSTAR          = .69412954E-4
MEAN_MOTION_DOT = .643E-5
MEAN_MOTION_DDOT = 0

CCSDS_OMM_VERS = 2.0
CREATION_DATE  = 
ORIGINATOR     = 

OBJECT_NAME    = SL-3 R/B
OBJECT_ID      = 1983-010B
CENTER_NAME    = EARTH
REF_FRAME      = TEME
TIME_SYSTEM    = UTC
MEAN_ELEMENT_THEORY = SGP/SGP4

EPOCH          = 2026-02-15T00:59:56.595264
MEAN_MOTION    = 15.45515453
ECCENTRICITY   = .00183854
INCLINATION    = 81.1024
RA_OF_ASC_NODE = 29.9951
ARG_OF_PERICENTER = 122.3597
MEAN_ANOMALY   = 237.9430

EPHEMERIS_TYPE = 0
CLASSIFICATION_TYPE = U
NORAD_CAT_ID   = 13819
ELEMENT_SET_NO = 999
REV_AT_EPOCH   = 35444
BSTAR          = .26487827E-3
MEAN_MOTION_DOT = .12824E-3
MEAN_MOTION_DDOT = 0

CCSDS_OMM_VERS = 2.0
CREATION_DATE  = 
ORIGINATOR     = 

OBJECT_NAME    = SL-3 R/B
OBJECT_ID      = 1983-075B
CENTER_NAME    = EARTH
REF_FRAME      = TEME
TIME_SYSTEM    = UTC
MEAN_ELEMENT_THEORY = SGP/SGP4

EPOCH          = 2026-02-15T05:49:11.586144
MEAN_MOTION    = 15.37835058
ECCENTRICITY   = .00202957
INCLINATION    = 97.6127
RA_OF_ASC_NODE = 49.9827
ARG_OF_PERICENTER = 314.2291
MEAN_ANOMALY   = 45.7286

EPHEMERIS_TYPE = 0
CLASSIFICATION_TYPE = U
NORAD_CAT_ID   = 14208
ELEMENT_SET_NO = 999
REV_AT_EPOCH   = 32670
BSTAR          = .37053632E-3
MEAN_MOTION_DOT = .13793E-3
MEAN_MOTION_DDOT = 0

CCSDS_OMM_VERS = 2.0
CREATION_DATE  = 
ORIGINATOR     = 

OBJECT_NAME    = COSMOS 1536
OBJECT_ID      = 1984-013A
CENTER_NAME    = EARTH
REF_FRAME      = TEME
TIME_SYSTEM    = UTC
MEAN_ELEMENT_THEORY = SGP/SGP4

EPOCH          = 2026-02-15T06:13:52.504608
MEAN_MOTION    = 15.23518302
ECCENTRICITY   = .00142737
INCLINATION    = 82.5468
RA_OF_ASC_NODE = 130.1380
ARG_OF_PERICENTER = 7.6957
MEAN_ANOMALY   = 352.4496

EPHEMERIS_TYPE = 0
CLASSIFICATION_TYPE = U
NORAD_CAT_ID   = 14699
ELEMENT_SET_NO = 999
REV_AT_EPOCH   = 26920
BSTAR          = .27205712E-3
MEAN_MOTION_DOT = .6544E-4
MEAN_MOTION_DDOT = 0

CCSDS_OMM_VERS = 2.0
CREATION_DATE  = 
ORIGINATOR     = 

OBJECT_NAME    = SL-14 R/B
OBJECT_ID      = 1984-027B
CENTER_NAME    = EARTH
REF_FRAME      = TEME
TIME_SYSTEM    = UTC
MEAN_ELEMENT_THEORY = SGP/SGP4

EPOCH          = 2026-02-15T01:37:20.426592
MEAN_MOTION    = 14.85953097
ECCENTRICITY   = .00191979
INCLINATION    = 82.5390
RA_OF_ASC_NODE = 266.2351
ARG_OF_PERICENTER = 51.5006
MEAN_ANOMALY   = 308.7928

EPHEMERIS_TYPE = 0
CLASSIFICATION_TYPE = U
NORAD_CAT_ID   = 14820
ELEMENT_SET_NO = 999
REV_AT_EPOCH   = 24427
BSTAR          = .4321585E-4
MEAN_MOTION_DOT = .403E-5
MEAN_MOTION_DDOT = 0

CCSDS_OMM_VERS = 2.0
CREATION_DATE  = 
ORIGINATOR     = 

OBJECT_NAME    = SL-8 R/B
OBJECT_ID      = 1985-006B
CENTER_NAME    = EARTH
REF_FRAME      = TEME
TIME_SYSTEM    = UTC
MEAN_ELEMENT_THEORY = SGP/SGP4

EPOCH          = 2026-02-15T04:54:59.928192
MEAN_MOTION    = 14.37771867
ECCENTRICITY   = .00192654
INCLINATION    = 74.0462
RA_OF_ASC_NODE = 302.5235
ARG_OF_PERICENTER = 224.8837
MEAN_ANOMALY   = 305.8950

EPHEMERIS_TYPE = 0
CLASSIFICATION_TYPE = U
NORAD_CAT_ID   = 15483
ELEMENT_SET_NO = 999
REV_AT_EPOCH   = 15079
BSTAR          = .72736637E-4
MEAN_MOTION_DOT = .193E-5
MEAN_MOTION_DDOT = 0

CCSDS_OMM_VERS = 2.0
CREATION_DATE  = 
ORIGINATOR     = 

OBJECT_NAME    = SL-12 R/B(2)
OBJECT_ID      = 1985-042D
CENTER_NAME    = EARTH
REF_FRAME      = TEME
TIME_SYSTEM    = UTC
MEAN_ELEMENT_THEORY = SGP/SGP4

EPOCH          = 2026-02-15T05:54:17.610624
MEAN_MOTION    = 14.21976227
ECCENTRICITY   = .00345027
INCLINATION    = 71.1085
RA_OF_ASC_NODE = 135.1466
ARG_OF_PERICENTER = 164.2764
MEAN_ANOMALY   = 216.9471

EPHEMERIS_TYPE = 0
CLASSIFICATION_TYPE = U
NORAD_CAT_ID   = 15772
ELEMENT_SET_NO = 999
REV_AT_EPOCH   = 11120
BSTAR          = .37806027E-4
MEAN_MOTION_DOT = .36E-6
MEAN_MOTION_DDOT = 0

CCSDS_OMM_VERS = 2.0
CREATION_DATE  = 
ORIGINATOR     = 

OBJECT_NAME    = SL-14 R/B
OBJECT_ID      = 1985-069B
CENTER_NAME    = EARTH
REF_FRAME      = TEME
TIME_SYSTEM    = UTC
MEAN_ELEMENT_THEORY = SGP/SGP4

EPOCH          = 2026-02-15T01:25:16.757472
MEAN_MOTION    = 14.86405366
ECCENTRICITY   = .00171268
INCLINATION    = 82.5243
RA_OF_ASC_NODE = 46.2161
ARG_OF_PERICENTER = 267.5638
MEAN_ANOMALY   = 92.3618

EPHEMERIS_TYPE = 0
CLASSIFICATION_TYPE = U
NORAD_CAT_ID   = 15945
ELEMENT_SET_NO = 999
REV_AT_EPOCH   = 16947
BSTAR          = .5525802E-4
MEAN_MOTION_DOT = .513E-5
MEAN_MOTION_DDOT = 0

CCSDS_OMM_VERS = 2.0
CREATION_DATE  = 
ORIGINATOR     = 

OBJECT_NAME    = SL-16 R/B
OBJECT_ID      = 1985-097B
CENTER_NAME    = EARTH
REF_FRAME      = TEME
TIME_SYSTEM    = UTC
MEAN_ELEMENT_THEORY = SGP/SGP4

EPOCH          = 2026-02-14T20:02:36.768192
MEAN_MOTION    = 14.16594824
ECCENTRICITY   = .00097147
INCLINATION    = 71.0024
RA_OF_ASC_NODE = 188.6649
ARG_OF_PERICENTER = 286.3786
MEAN_ANOMALY   = 183.3702

EPHEMERIS_TYPE = 0
CLASSIFICATION_TYPE = U
NORAD_CAT_ID   = 16182
ELEMENT_SET_NO = 999
REV_AT_EPOCH   = 8399
BSTAR          = -.82310363E-4
MEAN_MOTION_DOT = -.212E-5
MEAN_MOTION_DDOT = 0

CCSDS_OMM_VERS = 2.0
CREATION_DATE  = 
ORIGINATOR     = 

OBJECT_NAME    = SL-14 R/B
OBJECT_ID      = 1986-006B
CENTER_NAME    = EARTH
REF_FRAME      = TEME
TIME_SYSTEM    = UTC
MEAN_ELEMENT_THEORY = SGP/SGP4

EPOCH          = 2026-02-15T02:37:43.274496
MEAN_MOTION    = 14.86784284
ECCENTRICITY   = .00763966
INCLINATION    = 82.5256
RA_OF_ASC_NODE = 280.9920
ARG_OF_PERICENTER = 348.7636
MEAN_ANOMALY   = 11.1870

EPHEMERIS_TYPE = 0
CLASSIFICATION_TYPE = U
NORAD_CAT_ID   = 16496
ELEMENT_SET_NO = 999
REV_AT_EPOCH   = 14585
BSTAR          = .63509054E-4
MEAN_MOTION_DOT = .622E-5
MEAN_MOTION_DDOT = 0

CCSDS_OMM_VERS = 2.0
CREATION_DATE  = 
ORIGINATOR     = 

OBJECT_NAME    = COSMOS 1743
OBJECT_ID      = 1986-034A
CENTER_NAME    = EARTH
REF_FRAME      = TEME
TIME_SYSTEM    = UTC
MEAN_ELEMENT_THEORY = SGP/SGP4

EPOCH          = 2026-02-15T03:47:21.712416
MEAN_MOTION    = 15.56883262
ECCENTRICITY   = .00045688
INCLINATION    = 82.5316
RA_OF_ASC_NODE = 97.4483
ARG_OF_PERICENTER = 33.0531
MEAN_ANOMALY   = 327.1009

EPHEMERIS_TYPE = 0
CLASSIFICATION_TYPE = U
NORAD_CAT_ID   = 16719
ELEMENT_SET_NO = 999
REV_AT_EPOCH   = 17674
BSTAR          = .39987046E-3
MEAN_MOTION_DOT = .28828E-3
MEAN_MOTION_DDOT = 0

